HULIANWANG DIGUI-114    
1 66953U 25287A   25354.38141962  .00000019  00000+0  30336-5 0  9995
2 66953  86.4960 343.3747 0009673 185.0352 175.0710 13.66161866  1572
HULIANWANG DIGUI-115    
1 66954U 25287B   25354.59996245  .00000016  00000+0 -97933-6 0  9996
2 66954  86.4975 343.2967 0009498 182.0064 178.1058 13.66603826  1604
HULIANWANG DIGUI-116    
1 66955U 25287C   25354.67187073  .00000120  00000+0  12369-3 0  9999
2 66955  86.4918 343.2556 0008660 174.2680 185.8579 13.67009251  1610
HULIANWANG DIGUI-117    
1 66956U 25287D   25352.62166759  .00000026  00000+0  10922-4 0  9990
2 66956  86.4971 344.0126 0007676 176.3616 183.7600 13.67770338  1332
HULIANWANG DIGUI-118    
1 66957U 25287E   25355.03488252  .00000128  00000+0  13223-3 0  9993
2 66957  86.4946 343.1304 0005472 170.9065 189.2194 13.67510110  1668
CZ-6A R/B               
1 66958U 25287F   25355.59777809  .00000085  00000+0  46632-4 0  9997
2 66958  86.5061 342.7330 0107243  75.5233 285.7811 13.94921167  1776
STARLINK-35887          
1 66959U 25288A   25356.16668980 -.00867976  00000+0 -60707-2 0  9991
2 66959  43.0008 109.4961 0001891 276.5678 186.9943 15.75714054  3341
STARLINK-35879          
1 66960U 25288B   25356.16668980 -.00841388  00000+0 -58735-2 0  9990
2 66960  43.0007 109.4911 0001847 272.2665 193.2366 15.75684960  3349
STARLINK-35761          
1 66961U 25288C   25356.16668980 -.00793395  00000+0 -55180-2 0  9996
2 66961  43.0005 109.4864 0001841 269.8802 197.5740 15.75638322  3348
STARLINK-35874          
1 66962U 25288D   25356.16668980 -.00592473  00000+0 -40573-2 0  9991
2 66962  43.0006 109.4810 0001842 279.4938 190.0052 15.75447610  3341
STARLINK-36133          
1 66963U 25288E   25356.16668980 -.00517727  00000+0 -35225-2 0  9999
2 66963  43.0006 109.4764 0001877 271.9007 199.5514 15.75393547  3348
STARLINK-36104          
1 66964U 25288F   25356.16668980 -.00440444  00000+0 -29798-2 0  9999
2 66964  43.0005 109.4709 0001748 266.0552 207.3561 15.75314933  3346
